$$SOE
2459580.500000000, A.D. 2022-Jan-01 00:00:00.0000, -3.347856752375065E+08, 1.295896438766474E+08, 3.256839676806551E+07,
2459587.500000000, A.D. 2022-Jan-08 00:00:00.0000, -3.376125148664123E+08, 1.190031736322410E+08, 3.203764575187632E+07,
2459594.500000000, A.D. 2022-Jan-15 00:00:00.0000, -3.400863772914119E+08, 1.082922891964347E+08, 3.147339619701457E+07,
2459601.500000000, A.D. 2022-Jan-22 00:00:00.0000, -3.422013683103619E+08, 9.746713836589333E+07, 3.087593208056848E+07,
2459608.500000000, A.D. 2022-Jan-29 00:00:00.0000, -3.439517565720954E+08, 8.653815254673709E+07, 3.024556841756845E+07,
2459615.500000000, A.D. 2022-Feb-05 00:00:00.0000, -3.453319866244124E+08, 7.551605375169133E+07, 2.958265270416500E+07,
2459622.500000000, A.D. 2022-Feb-12 00:00:00.0000, -3.463366908187889E+08, 6.441186048572887E+07, 2.888756614579387E+07,
2459629.500000000, A.D. 2022-Feb-19 00:00:00.0000, -3.469607014392638E+08, 5.323689483530734E+07, 2.816072498445491E+07,
2459636.500000000, A.D. 2022-Feb-26 00:00:00.0000, -3.471990644140886E+08, 4.200278997278316E+07, 2.740258198460288E+07,
2459643.500000000, A.D. 2022-Mar-05 00:00:00.0000, -3.470470545022422E+08, 3.072149738628789E+07, 2.661362801085239E+07,
2459650.500000000, A.D. 2022-Mar-12 00:00:00.0000, -3.465001917864935E+08, 1.940529368752053E+07, 2.579439366986946E+07,
2459657.500000000, A.D. 2022-Mar-19 00:00:00.0000, -3.455542594590467E+08, 8.066786936216755E+06, 2.494545100993630E+07,
2459664.500000000, A.D. 2022-Mar-26 00:00:00.0000, -3.442053229340160E+08, -3.281077619561349E+06, 2.406741527243594E+07,
2459671.500000000, A.D. 2022-Apr-02 00:00:00.0000, -3.424497502698887E+08, -1.462501254687294E+07, 2.316094667996331E+07,
2459678.500000000, A.D. 2022-Apr-09 00:00:00.0000, -3.402842336745025E+08, -2.595138408715039E+07, 2.222675223095253E+07,
2459685.500000000, A.D. 2022-Apr-16 00:00:00.0000, -3.377058117754121E+08, -3.724620834864440E+07, 2.126558751531716E+07,
2459692.500000000, A.D. 2022-Apr-23 00:00:00.0000, -3.347118939606282E+08, -4.849514689328027E+07, 2.027825874919504E+07,
2459699.500000000, A.D. 2022-Apr-30 00:00:00.0000, -3.313002886932960E+08, -5.968350412234581E+07, 1.926562500885208E+07,
2459706.500000000, A.D. 2022-May-07 00:00:00.0000, -3.274692327671075E+08, -7.079622860453893E+07, 1.822860021220768E+07,
2459713.500000000, A.D. 2022-May-14 00:00:00.0000, -3.232174201272945E+08, -8.181791548657218E+07, 1.716815495760850E+07,
2459720.500000000, A.D. 2022-May-21 00:00:00.0000, -3.185440322805194E+08, -9.273280942085485E+07, 1.608531845423038E+07,
2459727.500000000, A.D. 2022-May-28 00:00:00.0000, -3.134487707499328E+08, -1.035248091825714E+08, 1.498118049309357E+07,
2459734.500000000, A.D. 2022-Jun-04 00:00:00.0000, -3.079318912637563E+08, -1.141774745181160E+08, 1.385689338912710E+07,
2459741.500000000, A.D. 2022-Jun-11 00:00:00.0000, -3.019942394782371E+08, -1.246740354628890E+08, 1.271367386058147E+07,
2459748.500000000, A.D. 2022-Jun-18 00:00:00.0000, -2.956372881153179E+08, -1.349974043673396E+08, 1.155280482017752E+07,
2459755.500000000, A.D. 2022-Jun-25 00:00:00.0000, -2.888631753760838E+08, -1.451301909289710E+08, 1.037563704664411E+07,
2459762.500000000, A.D. 2022-Jul-02 00:00:00.0000, -2.816747443557199E+08, -1.550547205710231E+08, 9.183590690195791E+06,
2459769.500000000, A.D. 2022-Jul-09 00:00:00.0000, -2.740755828951934E+08, -1.647530562732596E+08, 7.978156558947802E+06,
2459776.500000000, A.D. 2022-Jul-16 00:00:00.0000, -2.660700637113469E+08, -1.742070230582434E+08, 6.760897245185256E+06,
2459783.500000000, A.D. 2022-Jul-23 00:00:00.0000, -2.576633867466211E+08, -1.833982353423489E+08, 5.533448261738546E+06,
2459790.500000000, A.D. 2022-Jul-30 00:00:00.0000, -2.488616233528336E+08, -1.923081307915194E+08, 4.297518865808524E+06,
2459797.500000000, A.D. 2022-Aug-06 00:00:00.0000, -2.396717583644913E+08, -2.009180103120608E+08, 3.054892249664992E+06,
2459804.500000000, A.D. 2022-Aug-13 00:00:00.0000, -2.301017304871078E+08, -2.092090816807822E+08, 1.807425353205085E+06,
2459811.500000000, A.D. 2022-Aug-20 00:00:00.0000, -2.201604721135228E+08, -2.171625075494803E+08, 5.570483533804268E+05,
2459818.500000000, A.D. 2022-Aug-27 00:00:00.0000, -2.098579479839604E+08, -2.247594587507983E+08, -6.942362850913405E+05,
2459825.500000000, A.D. 2022-Sep-03 00:00:00.0000, -1.992051918696927E+08, -2.319811731801629E+08, -1.944355281106517E+06,
2459832.500000000, A.D. 2022-Sep-10 00:00:00.0000, -1.882143405667076E+08, -2.388090203455984E+08, -3.191166588910356E+06,
2459839.500000000, A.D. 2022-Sep-17 00:00:00.0000, -1.768986644951857E+08, -2.452245716387472E+08, -4.432462084147036E+06,
2459846.500000000, A.D. 2022-Sep-24 00:00:00.0000, -1.652725941187427E+08, -2.512096763536488E+08, -5.665970943413720E+06,
2459853.500000000, A.D. 2022-Oct-01 00:00:00.0000, -1.533517411730925E+08, -2.567465433654684E+08, -6.889363787972376E+06,
2459860.500000000, A.D. 2022-Oct-08 00:00:00.0000, -1.411529134914457E+08, -2.618178277398479E+08, -8.100257628981322E+06,
2459867.500000000, A.D. 2022-Oct-15 00:00:00.0000, -1.286941235289210E+08, -2.664067207565569E+08, -9.296221467640802E+06,
2459874.500000000, A.D. 2022-Oct-22 00:00:00.0000, -1.159945919259641E+08, -2.704970445939702E+08, -1.047478251730815E+07,
2459881.500000000, A.D. 2022-Oct-29 00:00:00.0000, -1.030747427778712E+08, -2.740733537068078E+08, -1.163343350943230E+07,
2459888.500000000, A.D. 2022-Nov-05 00:00:00.0000, -8.995618770629667E+07, -2.771210394647810E+08, -1.276964106173456E+07,
2459895.500000000, A.D. 2022-Nov-12 00:00:00.0000, -7.666169994427912E+07, -2.796264359520339E+08, -1.388085482150330E+07,
2459902.500000000, A.D. 2022-Nov-19 00:00:00.0000, -6.321517847575420E+07, -2.815769269012831E+08, -1.496451737717323E+07,
2459909.500000000, A.D. 2022-Nov-26 00:00:00.0000, -4.964160138755635E+07, -2.829610530292554E+08, -1.601807495776302E+07,
2459916.500000000, A.D. 2022-Dec-03 00:00:00.0000, -3.596696780292384E+07, -2.837686185088043E+08, -1.703898887972523E+07,
2459923.500000000, A.D. 2022-Dec-10 00:00:00.0000, -2.221822801791991E+07, -2.839907951663460E+08, -1.802474766886313E+07,
2459930.500000000, A.D. 2022-Dec-17 00:00:00.0000, -8.423201650160985E+06, -2.836202229625154E+08, -1.897287977058651E+07,
2459937.500000000, A.D. 2022-Dec-24 00:00:00.0000, 5.389516263790084E+06, -2.826511053045352E+08, -1.988096675669326E+07,
2459944.500000000, A.D. 2022-Dec-31 00:00:00.0000, 1.919066129655304E+07, -2.810792975226858E+08, -2.074665692709941E+07,
2459951.500000000, A.D. 2023-Jan-07 00:00:00.0000, 3.295041738014136E+07, -2.789023859642582E+08, -2.156767909429535E+07,
2459958.500000000, A.D. 2023-Jan-14 00:00:00.0000, 4.663854354299919E+07, -2.761197556372249E+08, -2.234185616732311E+07,
2459965.500000000, A.D. 2023-Jan-21 00:00:00.0000, 6.022450798050254E+07, -2.727326480666583E+08, -2.306711855978091E+07,
2459972.500000000, A.D. 2023-Jan-28 00:00:00.0000, 7.367763188217872E+07, -2.687442081672596E+08, -2.374151758991513E+07,
2459979.500000000, A.D. 2023-Feb-04 00:00:00.0000, 8.696724133388564E+07, -2.641595158774307E+08, -2.436323841714798E+07,
2459986.500000000, A.D. 2023-Feb-11 00:00:00.0000, 1.000628238182274E+08, -2.589856017219757E+08, -2.493061217630191E+07,
2459993.500000000, A.D. 2023-Feb-18 00:00:00.0000, 1.129341873928002E+08, -2.532314463371150E+08, -2.544212718516736E+07,
2460000.500000000, A.D. 2023-Feb-25 00:00:00.0000, 1.255516208154415E+08, -2.469079636017237E+08, -2.589643908605923E+07,
2460007.500000000, A.D. 2023-Mar-04 00:00:00.0000, 1.378860526327656E+08, -2.400279671351514E+08, -2.629237976649262E+07,
2460014.500000000, A.D. 2023-Mar-11 00:00:00.0000, 1.499092071317484E+08, -2.326061202507679E+08, -2.662896491731125E+07,
2460021.500000000, A.D. 2023-Mar-18 00:00:00.0000, 1.615937550870238E+08, -2.246588698184486E+08, -2.690540011523342E+07,
2460028.500000000, A.D. 2023-Mar-25 00:00:00.0000, 1.729134574688298E+08, -2.162043648033585E+08, -2.712108535806730E+07,
2460035.500000000, A.D. 2023-Apr-01 00:00:00.0000, 1.838433006240599E+08, -2.072623601181954E+08, -2.727561799514788E+07,
2460042.500000000, A.D. 2023-Apr-08 00:00:00.0000, 1.943596205704412E+08, -1.978541058739184E+08, -2.736879386323075E+07,
2460049.500000000, A.D. 2023-Apr-15 00:00:00.0000, 2.044402125332726E+08, -1.880022246790114E+08, -2.740060650196793E+07,
2460056.500000000, A.D. 2023-Apr-22 00:00:00.0000, 2.140644262536751E+08, -1.777305817731885E+08, -2.737124489365703E+07,
2460063.500000000, A.D. 2023-Apr-29 00:00:00.0000, 2.232132488108079E+08, -1.670641476287214E+08, -2.728108985416766E+07,
2460070.500000000, A.D. 2023-May-06 00:00:00.0000, 2.318693725078880E+08, -1.560288532296093E+08, -2.713070885672949E+07,
2460077.500000000, A.D. 2023-May-13 00:00:00.0000, 2.400172464602835E+08, -1.446514409600869E+08, -2.692084938551174E+07,
2460084.500000000, A.D. 2023-May-20 00:00:00.0000, 2.476431120374338E+08, -1.329593136232001E+08, -2.665243101499379E+07,
2460091.500000000, A.D. 2023-May-27 00:00:00.0000, 2.547350225611216E+08, -1.209803835913869E+08, -2.632653638636244E+07,
2460098.500000000, A.D. 2023-Jun-03 00:00:00.0000, 2.612828477977050E+08, -1.087429239344189E+08, -2.594440124734063E+07,
2460105.500000000, A.D. 2023-Jun-10 00:00:00.0000, 2.672782639905128E+08, -9.627542327103937E+07, -2.550740372953464E+07,
2460112.500000000, A.D. 2023-Jun-17 00:00:00.0000, 2.727147304488611E+08, -8.360644596691284E+07, -2.501705304997288E+07,
2460119.500000000, A.D. 2023-Jun-24 00:00:00.0000, 2.775874541049056E+08, -7.076449898617636E+07, -2.447497783319521E+07,
2460126.500000000, A.D. 2023-Jul-01 00:00:00.0000, 2.818933435197808E+08, -5.777790571194988E+07, -2.388291417532155E+07,
2460133.500000000, A.D. 2023-Jul-08 00:00:00.0000, 2.856309520026279E+08, -4.467468684580806E+07, -2.324269338791105E+07,
2460140.500000000, A.D. 2023-Jul-15 00:00:00.0000, 2.888004099504986E+08, -3.148245193960741E+07, -2.255622968343779E+07,
$$EOE